SL-8 R/B                
1 19257U 88053B   26068.59762699  .00000298  00000+0  10511-3 0  9992
2 19257  74.0460 112.6362 0021414 291.8980 184.3804 14.38915667976580
COSMOS 1975             
1 19573U 88093A   26068.59384808  .00007676  00000+0  27870-3 0  9992
2 19573  82.5181 117.7814 0012117 163.8427 196.3201 15.28069249 19394
SL-14 R/B               
1 19574U 88093B   26068.86011528  .00000761  00000+0  84662-4 0  9990
2 19574  82.5306  41.8836 0021757  40.9727 357.7447 14.85656754  1046
SL-16 R/B               
1 19650U 88102B   26068.62239070  .00000309  00000+0  18009-3 0  9993
2 19650  71.0001 151.6391 0013948   1.7744 358.3426 14.16151991926888
INTERCOSMOS 24          
1 20261U 89080A   26068.56425345  .00000876  00000+0  26093-3 0  9995
2 20261  82.6027 104.4860 1186701 293.1117  54.9307 12.59557530666782
SL-14 R/B               
1 20262U 89080C   26068.79588968  .00000731  00000+0  21561-3 0  9997
2 20262  82.5975 173.1181 1230576 184.5069 174.4058 12.50493802660161
DELTA 1 R/B             
1 20323U 89089B   26068.55186074  .00000418  00000+0  11170-3 0  9997
2 20323  97.0705 276.0125 0070463 122.4096 238.3945 14.50662814895718
ARIANE 40 R/B           
1 20443U 90005H   26068.74403992  .00000339  00000+0  12124-3 0  9994
2 20443  98.3083 129.4039 0009857 198.4111 161.6722 14.39870541892813
DELTA 2 R/B(1)          
1 20453U 90008B   26068.37460026  .00064698  00000+0  75711-3 0  9997
2 20453  35.6039 176.9220 0085439 255.8292 103.2939 15.55957726926085
COSMOS 2058             
1 20465U 90010A   26068.44951663  .00005023  00000+0  29631-3 0  9990
2 20465  82.4670  47.6646 0009374 345.0233  15.0718 15.11318921942203
SL-14 R/B               
1 20466U 90010B   26068.61945141  .00000519  00000+0  60041-4 0  9990
2 20466  82.4987 267.4549 0018538 302.6174  57.3252 14.83568711928471
SL-14 R/B               
1 20511U 90018B   26068.50220682  .00000693  00000+0  83952-4 0  9992
2 20511  82.5202 223.2647 0017676  92.6107 267.7131 14.82144727922558
HST                     
1 20580U 90037B   26068.15977042  .00009063  00000+0  30023-3 0  9999
2 20580  28.4717  43.6133 0001837 120.9992 239.0785 15.29473555773239
SL-16 R/B               
1 20625U 90046B   26068.83857323 -.00000235  00000+0 -96382-4 0  9998
2 20625  70.9988 297.6021 0016219 299.3998  60.5505 14.15012359848410
COSMOS 2084             
1 20663U 90055A   26068.85479067  .00003224  00000+0  23541-3 0  9992
2 20663  62.7921 335.0153 0017016 190.1058 169.9703 15.05653375936345
SL-6 R/B(2)             
1 20666U 90055D   26068.83765625  .00002682  00000+0  20856-3 0  9994
2 20666  62.7825 253.3472 0024765 347.1256  12.9207 15.03595131938217
SL-8 R/B                
1 20775U 90078B   26068.57562763  .00017130  00000+0  50427-3 0  9990
2 20775  82.9005 251.4134 0362313  14.3826 346.7376 14.89054414809282
